STARLINK-31559          
1 59358U 24060L   26068.68488864 -.00000934  00000+0 -24430-4 0  9990
2 59358  42.9997 259.7507 0001313 280.0092  80.0611 15.27580822110060
STARLINK-36554          
1 67502U 26012K   26067.71268370  .00032833  00000+0  11969-2 0  9992
2 67502  42.9934 319.8184 0000695 339.2059  20.8765 15.27591469  7619
